{
  "norad_id": 61932,
  "name": "STARLINK-32354",
  "history": [
    {
      "epoch": "2026-03-28T07:03:06.656256",
      "apogee_km": 483.58063499896616,
      "perigee_km": 482.3771952674524,
      "latitude_deg": -28.744087202635036,
      "longitude_deg": 41.40739583992399,
      "semi_major_axis_km": 6861.1159151332095,
      "eccentricity": 8.77e-05,
      "inclination_deg": 42.9999,
      "raan_deg": 180.451,
      "arg_perigee_deg": 242.1374,
      "mean_anomaly_deg": 117.9389,
      "mean_motion_rev_day": 15.27603438
    }
  ]
}